STARLINK-36927          
1 67941U 26037K   26077.58334491 -.01871852  00000+0 -14272-1 0  9994
2 67941  42.9994 144.0064 0001308 277.3036 335.4830 15.74571005  4628
STARLINK-36914          
1 67942U 26037L   26077.47472484  .00431947  00000+0  19428-2 0  9991
2 67942  42.9979 144.6525 0000879 212.4452 147.6366 15.82129224  4644
STARLINK-36851          
1 67943U 26037M   26077.58334491 -.01874750  00000+0 -13685-1 0  9993
2 67943  42.9993 144.0240 0001336 275.0454 330.8204 15.75561209  4625
STARLINK-36892          
1 67944U 26037N   26077.58334491 -.01874224  00000+0 -13200-1 0  9993
2 67944  42.9993 143.9927 0001231 276.5646 342.0308 15.76362795  4629
STARLINK-36908          
1 67945U 26037P   26076.90289904  .00440150  00000+0  20123-2 0  9994
2 67945  42.9985 148.1053 0001339 333.9537  26.1268 15.81758378  4553
STARLINK-36909          
1 67946U 26037Q   26077.59650047  .00364370  00000+0  16611-2 0  9997
2 67946  42.9982 143.8420 0001596 289.3786  70.6913 15.82016412  4666
STARLINK-36920          
1 67947U 26037R   26077.58334491 -.01870659  00000+0 -15603-1 0  9993
2 67947  42.9996 144.0116 0001137 273.1078 337.5087 15.72512213  4625
STARLINK-36873          
1 67948U 26037S   26077.58334491 -.01904607  00000+0 -16424-1 0  9997
2 67948  42.9996 144.0276 0001222 277.4231 326.6192 15.71264504  4628
STARLINK-36863          
1 67949U 26037T   26077.58334491 -.01870689  00000+0 -13489-1 0  9998
2 67949  42.9991 143.9343 0001228 276.6420   4.8964 15.75830012  4623
STARLINK-36887          
1 67950U 26037U   26077.58334491 -.01841733  00000+0 -23354-1 0  9990
2 67950  42.9992 144.3230 0001492 289.6623 196.0595 15.61725759  4628
STARLINK-36897          
1 67951U 26037V   26077.58334491 -.01870228  00000+0 -14111-1 0  9993
2 67951  42.9992 143.9276 0001295 266.6953  17.5058 15.74806745  4626
STARLINK-36381          
1 67952U 26037W   26075.57100050 -.00027192  00000+0 -12748-3 0  9992
2 67952  42.9982 156.1801 0001021 306.5215  53.5562 15.81938385  4341
